[{"OBJECT_NAME":"STARLINK-37056","OBJECT_ID":"2026-054AE","EPOCH":"2026-03-28T20:00:01.999872","MEAN_MOTION":15.80796928,"ECCENTRICITY":0.00014254,"INCLINATION":53.159,"RA_OF_ASC_NODE":216.4885,"ARG_OF_PERICENTER":77.6967,"MEAN_ANOMALY":320.6922,"EPHEMERIS_TYPE":0,"CLASSIFICATION_TYPE":"U","NORAD_CAT_ID":68260,"ELEMENT_SET_NO":999,"REV_AT_EPOCH":299,"BSTAR":0.00097926545,"MEAN_MOTION_DOT":0.00196343,"MEAN_MOTION_DDOT":0},{"OBJECT_NAME":"TEN-KOH 2","OBJECT_ID":"2025-241B","EPOCH":"2026-03-28T21:58:58.849824","MEAN_MOTION":15.22746398,"ECCENTRICITY":0.00044601,"INCLINATION":51.6387,"RA_OF_ASC_NODE":341.4537,"ARG_OF_PERICENTER":225.9744,"MEAN_ANOMALY":134.0867,"EPHEMERIS_TYPE":0,"CLASSIFICATION_TYPE":"U","NORAD_CAT_ID":68261,"ELEMENT_SET_NO":999,"REV_AT_EPOCH":267,"BSTAR":0.0004467232,"MEAN_MOTION_DOT":0.00010253,"MEAN_MOTION_DDOT":0},{"OBJECT_NAME":"STARLINK-37162","OBJECT_ID":"2026-055A","EPOCH":"2026-03-28T20:00:01.999872","MEAN_MOTION":15.95233118,"ECCENTRICITY":7.085e-5,"INCLINATION":53.1581,"RA_OF_ASC_NODE":241.6872,"ARG_OF_PERICENTER":55.3988,"MEAN_ANOMALY":346.5823,"EPHEMERIS_TYPE":0,"CLASSIFICATION_TYPE":"U","NORAD_CAT_ID":68262,"ELEMENT_SET_NO":999,"REV_AT_EPOCH":271,"BSTAR":-0.0026974032,"MEAN_MOTION_DOT":-0.01087597,"MEAN_MOTION_DDOT":0.00036793032},{"OBJECT_NAME":"STARLINK-37156","OBJECT_ID":"2026-055B","EPOCH":"2026-03-28T20:00:01.999872","MEAN_MOTION":15.95324745,"ECCENTRICITY":8.504e-5,"INCLINATION":53.158,"RA_OF_ASC_NODE":241.6824,"ARG_OF_PERICENTER":54.2191,"MEAN_ANOMALY":350.2511,"EPHEMERIS_TYPE":0,"CLASSIFICATION_TYPE":"U","NORAD_CAT_ID":68263,"ELEMENT_SET_NO":999,"REV_AT_EPOCH":271,"BSTAR":-0.002700028,"MEAN_MOTION_DOT":-0.01093995,"MEAN_MOTION_DDOT":0.00037221023},{"OBJECT_NAME":"STARLINK-37163","OBJECT_ID":"2026-055C","EPOCH":"2026-03-28T20:00:01.999872","MEAN_MOTION":15.95522876,"ECCENTRICITY":8.112e-5,"INCLINATION":53.1578,"RA_OF_ASC_NODE":241.6686,"ARG_OF_PERICENTER":56.9293,"MEAN_ANOMALY":353.8389,"EPHEMERIS_TYPE":0,"CLASSIFICATION_TYPE":"U","NORAD_CAT_ID":68264,"ELEMENT_SET_NO":999,"REV_AT_EPOCH":271,"BSTAR":-0.0026955674,"MEAN_MOTION_DOT":-0.01103836,"MEAN_MOTION_DDOT":0.00037906747},{"OBJECT_NAME":"STARLINK-37133","OBJECT_ID":"2026-055D","EPOCH":"2026-03-28T20:00:01.999872","MEAN_MOTION":15.95423692,"ECCENTRICITY":7.144e-5,"INCLINATION":53.1579,"RA_OF_ASC_NODE":241.6755,"ARG_OF_PERICENTER":55.3722,"MEAN_ANOMALY":352.3218,"EPHEMERIS_TYPE":0,"CLASSIFICATION_TYPE":"U","NORAD_CAT_ID":68265,"ELEMENT_SET_NO":999,"REV_AT_EPOCH":271,"BSTAR":-0.0026913925,"MEAN_MOTION_DOT":-0.01096303,"MEAN_MOTION_DDOT":0.00037401102},{"OBJECT_NAME":"STARLINK-37042","OBJECT_ID":"2026-055E","EPOCH":"2026-03-28T20:00:01.999872","MEAN_MOTION":15.95623727,"ECCENTRICITY":8.761e-5,"INCLINATION":53.1577,"RA_OF_ASC_NODE":241.6608,"ARG_OF_PERICENTER":55.1281,"MEAN_ANOMALY":359.6225,"EPHEMERIS_TYPE":0,"CLASSIFICATION_TYPE":"U","NORAD_CAT_ID":68266,"ELEMENT_SET_NO":999,"REV_AT_EPOCH":271,"BSTAR":-0.0026810721,"MEAN_MOTION_DOT":-0.01103918,"MEAN_MOTION_DDOT":0.00037950708},{"OBJECT_NAME":"STARLINK-37103","OBJECT_ID":"2026-055F","EPOCH":"2026-03-28T20:00:01.999872","MEAN_MOTION":15.95728034,"ECCENTRICITY":8.258e-5,"INCLINATION":53.158,"RA_OF_ASC_NODE":241.6535,"ARG_OF_PERICENTER":56.057,"MEAN_ANOMALY":2.1231,"EPHEMERIS_TYPE":0,"CLASSIFICATION_TYPE":"U","NORAD_CAT_ID":68267,"ELEMENT_SET_NO":999,"REV_AT_EPOCH":271,"BSTAR":-0.0026883612,"MEAN_MOTION_DOT":-0.01113091,"MEAN_MOTION_DDOT":0.0003856568},{"OBJECT_NAME":"STARLINK-36999","OBJECT_ID":"2026-055G","EPOCH":"2026-03-28T20:00:01.999872","MEAN_MOTION":15.95830044,"ECCENTRICITY":7.953e-5,"INCLINATION":53.1579,"RA_OF_ASC_NODE":241.6472,"ARG_OF_PERICENTER":56.844,"MEAN_ANOMALY":4.4344,"EPHEMERIS_TYPE":0,"CLASSIFICATION_TYPE":"U","NORAD_CAT_ID":68268,"ELEMENT_SET_NO":999,"REV_AT_EPOCH":271,"BSTAR":-0.0026834762,"MEAN_MOTION_DOT":-0.0111719,"MEAN_MOTION_DDOT":0.00038864138},{"OBJECT_NAME":"STARLINK-36962","OBJECT_ID":"2026-055H","EPOCH":"2026-03-28T20:00:01.999872","MEAN_MOTION":15.9593209,"ECCENTRICITY":8.518e-5,"INCLINATION":53.1579,"RA_OF_ASC_NODE":241.6403,"ARG_OF_PERICENTER":57.0441,"MEAN_ANOMALY":7.5157,"EPHEMERIS_TYPE":0,"CLASSIFICATION_TYPE":"U","NORAD_CAT_ID":68269,"ELEMENT_SET_NO":999,"REV_AT_EPOCH":271,"BSTAR":-0.0026721093,"MEAN_MOTION_DOT":-0.01118634,"MEAN_MOTION_DDOT":0.00038995931},{"OBJECT_NAME":"STARLINK-37028","OBJECT_ID":"2026-055J","EPOCH":"2026-03-28T20:00:01.999872","MEAN_MOTION":15.96128299,"ECCENTRICITY":8.962e-5,"INCLINATION":53.1578,"RA_OF_ASC_NODE":241.6191,"ARG_OF_PERICENTER":54.537,"MEAN_ANOMALY":20.0146,"EPHEMERIS_TYPE":0,"CLASSIFICATION_TYPE":"U","NORAD_CAT_ID":68270,"ELEMENT_SET_NO":999,"REV_AT_EPOCH":271,"BSTAR":-0.0026738745,"MEAN_MOTION_DOT":-0.0113126,"MEAN_MOTION_DDOT":0.00039878286},{"OBJECT_NAME":"STARLINK-37029","OBJECT_ID":"2026-055K","EPOCH":"2026-03-28T20:00:01.999872","MEAN_MOTION":15.960271,"ECCENTRICITY":8.557e-5,"INCLINATION":53.1578,"RA_OF_ASC_NODE":241.6265,"ARG_OF_PERICENTER":58.8052,"MEAN_ANOMALY":12.3755,"EPHEMERIS_TYPE":0,"CLASSIFICATION_TYPE":"U","NORAD_CAT_ID":68271,"ELEMENT_SET_NO":999,"REV_AT_EPOCH":271,"BSTAR":-0.0027061458,"MEAN_MOTION_DOT":-0.01138533,"MEAN_MOTION_DDOT":0.00040303214},{"OBJECT_NAME":"STARLINK-36974","OBJECT_ID":"2026-055L","EPOCH":"2026-03-28T20:00:01.999872","MEAN_MOTION":15.96248175,"ECCENTRICITY":8.448e-5,"INCLINATION":53.1578,"RA_OF_ASC_NODE":241.6106,"ARG_OF_PERICENTER":61.2341,"MEAN_ANOMALY":17.4929,"EPHEMERIS_TYPE":0,"CLASSIFICATION_TYPE":"U","NORAD_CAT_ID":68272,"ELEMENT_SET_NO":999,"REV_AT_EPOCH":271,"BSTAR":-0.0026909929,"MEAN_MOTION_DOT":-0.01145802,"MEAN_MOTION_DDOT":0.00040863988},{"OBJECT_NAME":"STARLINK-37019","OBJECT_ID":"2026-055M","EPOCH":"2026-03-28T20:00:01.999872","MEAN_MOTION":15.96350335,"ECCENTRICITY":9.058e-5,"INCLINATION":53.1578,"RA_OF_ASC_NODE":241.604,"ARG_OF_PERICENTER":58.2632,"MEAN_ANOMALY":23.3856,"EPHEMERIS_TYPE":0,"CLASSIFICATION_TYPE":"U","NORAD_CAT_ID":68273,"ELEMENT_SET_NO":999,"REV_AT_EPOCH":271,"BSTAR":-0.0026688901,"MEAN_MOTION_DOT":-0.01142791,"MEAN_MOTION_DDOT":0.0004071179},{"OBJECT_NAME":"STARLINK-37129","OBJECT_ID":"2026-055N","EPOCH":"2026-03-28T20:00:01.999872","MEAN_MOTION":15.9646131,"ECCENTRICITY":8.427e-5,"INCLINATION":53.1576,"RA_OF_ASC_NODE":241.5973,"ARG_OF_PERICENTER":58.5506,"MEAN_ANOMALY":26.4633,"EPHEMERIS_TYPE":0,"CLASSIFICATION_TYPE":"U","NORAD_CAT_ID":68274,"ELEMENT_SET_NO":999,"REV_AT_EPOCH":271,"BSTAR":-0.0026607487,"MEAN_MOTION_DOT":-0.01146196,"MEAN_MOTION_DDOT":0.00040978991},{"OBJECT_NAME":"STARLINK-37123","OBJECT_ID":"2026-055P","EPOCH":"2026-03-28T20:00:01.999872","MEAN_MOTION":15.9657198,"ECCENTRICITY":9.591e-5,"INCLINATION":53.1579,"RA_OF_ASC_NODE":241.5915,"ARG_OF_PERICENTER":54.1803,"MEAN_ANOMALY":33.6321,"EPHEMERIS_TYPE":0,"CLASSIFICATION_TYPE":"U","NORAD_CAT_ID":68275,"ELEMENT_SET_NO":999,"REV_AT_EPOCH":271,"BSTAR":-0.0026622586,"MEAN_MOTION_DOT":-0.01153746,"MEAN_MOTION_DDOT":0.00041517649}]
